NORAD_CAT_ID,OBJECT_NAME,OBJECT_TYPE,EPOCH,MEAN_MOTION,ECCENTRICITY,INCLINATION,RA_OF_ASC_NODE,ARG_OF_PERICENTER,MEAN_ANOMALY,BSTAR,MEAN_MOTION_DOT,MEAN_MOTION_DDOT,TLE_LINE0,TLE_LINE1,TLE_LINE2,SEMIMAJOR_AXIS,PERIOD,APOGEE,PERIGEE,DECAYED
52459.0,STARLINK-3856,PAYLOAD,2024-06-30 15:35:40,15.08856463,9.81e-05,53.2166,309.124,94.5702,265.5402,3.3754e-05,2.5e-06,0.0,0 STARLINK-3856,1 52459U 22049J   24182.64977134  .00000250  00000-0  33754-4 0  9993,2 52459  53.2166 309.1240 0000981  94.5702 265.5402 15.08856463119252,6917.83,95.437,540.374,539.016,0.0
52459.0,STARLINK-3856,PAYLOAD,2024-07-01 12:15:42,15.08825945,0.0001104,53.2189,305.2607,105.3093,254.8022,0.00017138,2.44e-05,0.0,0 STARLINK-3856,1 52459U 22049J   24183.51090814  .00002440  00000-0  17138-3 0  9991,2 52459  53.2189 305.2607 0001104 105.3093 254.8022 15.08825945119387,6917.923,95.438,540.552,539.025,0.0
52459.0,STARLINK-3856,PAYLOAD,2024-07-01 15:26:28,15.08836637,7.48e-05,53.2158,304.6608,72.1992,287.9082,0.00022581,3.308e-05,0.0,0 STARLINK-3856,1 52459U 22049J   24183.64338076  .00003308  00000-0  22581-3 0  9992,2 52459  53.2158 304.6608 0000748  72.1992 287.9082 15.08836637119247,6917.891,95.438,540.273,539.238,0.0
52459.0,STARLINK-3856,PAYLOAD,2024-07-02 13:41:52,15.08843981,9.89e-05,53.2168,300.5023,105.6163,254.4938,-5.3481e-05,-1.139e-05,0.0,0 STARLINK-3856,1 52459U 22049J   24184.57074616 -.00001139  00000-0 -53481-4 0  9998,2 52459  53.2168 300.5023 0000989 105.6163 254.4938 15.08843981119387,6917.868,95.437,540.417,539.049,0.0
52459.0,STARLINK-3856,PAYLOAD,2024-07-02 15:17:14,15.08853765,6.81e-05,53.2161,300.2008,92.0417,268.0653,2.8751e-05,1.7e-06,0.0,0 STARLINK-3856,1 52459U 22049J   24184.63697623  .00000170  00000-0  28751-4 0  9998,2 52459  53.2161 300.2008 0000681  92.0417 268.0653 15.08853765119397,6917.838,95.437,540.174,539.232,0.0
52459.0,STARLINK-3856,PAYLOAD,2024-07-03 13:32:39,15.0883412,8.03e-05,53.2165,296.0409,72.9133,287.1947,9.3089e-05,1.194e-05,0.0,0 STARLINK-3856,1 52459U 22049J   24185.56434626  .00001194  00000-0  93089-4 0  9996,2 52459  53.2165 296.0409 0000803  72.9133 287.1947 15.08834120119691,6917.898,95.438,540.319,539.208,0.0
52459.0,STARLINK-3856,PAYLOAD,2024-07-03 15:08:02,15.08845316,9.48e-05,53.2162,295.7433,83.8945,276.2155,6.11e-05,6.85e-06,0.0,0 STARLINK-3856,1 52459U 22049J   24185.63058016  .00000685  00000-0  61100-4 0  9992,2 52459  53.2162 295.7433 0000948  83.8945 276.2155 15.08845316119704,6917.864,95.437,540.385,539.073,0.0
52459.0,STARLINK-3856,PAYLOAD,2024-07-04 13:23:26,15.08838371,0.0001121,53.2157,291.5798,91.369,268.743,3.3319e-05,2.42e-06,0.0,0 STARLINK-3856,1 52459U 22049J   24186.55794500  .00000242  00000-0  33319-4 0  9999,2 52459  53.2157 291.5798 0001121  91.3690 268.7430 15.08838371119841,6917.885,95.438,540.526,538.975,0.0
52459.0,STARLINK-3856,PAYLOAD,2024-07-04 16:34:12,15.08846242,0.0001087,53.2158,290.9828,104.901,255.2102,8.1872e-06,-1.57e-06,0.0,0 STARLINK-3856,1 52459U 22049J   24186.69041951 -.00000157  00000-0  81872-5 0  9993,2 52459  53.2158 290.9828 0001087 104.9010 255.2102 15.08846242119862,6917.861,95.437,540.478,538.974,0.0
52459.0,STARLINK-3856,PAYLOAD,2024-07-05 13:14:12,15.08847922,0.0001133,53.2174,287.1191,87.7908,272.3214,5.2735e-05,5.52e-06,0.0,0 STARLINK-3856,1 52459U 22049J   24187.55153744  .00000552  00000-0  52735-4 0  9996,2 52459  53.2174 287.1191 0001133  87.7908 272.3214 15.08847922119834,6917.856,95.437,540.505,538.937,0.0
52459.0,STARLINK-3856,PAYLOAD,2024-07-06 13:05:00,15.08839314,0.0001112,53.217,282.6581,91.9073,268.2047,-1.8683e-05,-5.85e-06,0.0,0 STARLINK-3856,1 52459U 22049J   24188.54514481 -.00000585  00000-0 -18683-4 0  9997,2 52459  53.2170 282.6581 0001112  91.9073 268.2047 15.08839314120140,6917.882,95.438,540.517,538.978,0.0
52459.0,STARLINK-3856,PAYLOAD,2024-07-07 09:45:01,15.08835747,0.0001135,53.2161,278.7929,81.3492,278.7629,2.2685e-05,7.3e-07,0.0,0 STARLINK-3856,1 52459U 22049J   24189.40626787  .00000073  00000-0  22685-4 0  9993,2 52459  53.2161 278.7929 0001135  81.3492 278.7629 15.08835747120110,6917.893,95.438,540.544,538.973,0.0
52459.0,STARLINK-3856,PAYLOAD,2024-07-08 12:46:34,15.0883835,0.0001494,53.2184,273.7424,113.3243,246.7906,9.0607e-05,1.154e-05,0.0,0 STARLINK-3856,1 52459U 22049J   24190.53234539  .00001154  00000-0  90607-4 0  9999,2 52459  53.2184 273.7424 0001494 113.3243 246.7906 15.08838350120440,6917.885,95.438,540.784,538.717,0.0
52459.0,STARLINK-3856,PAYLOAD,2024-07-08 22:18:53,15.08841685,0.0001352,53.2182,271.9574,104.5602,255.5541,6.7577e-05,7.88e-06,0.0,0 STARLINK-3856,1 52459U 22049J   24190.92978443  .00000788  00000-0  67577-4 0  9993,2 52459  53.2182 271.9574 0001352 104.5602 255.5541 15.08841685120345,6917.875,95.437,540.676,538.805,0.0
52459.0,STARLINK-3856,PAYLOAD,2024-07-09 14:12:45,15.08838019,0.0001614,53.219,268.9774,81.8163,278.3013,3.5194e-06,-2.32e-06,0.0,0 STARLINK-3856,1 52459U 22049J   24191.59219126 -.00000232  00000-0  35194-5 0  9999,2 52459  53.2190 268.9774 0001614  81.8163 278.3013 15.08838019120447,6917.886,95.438,540.868,538.635,0.0
52459.0,STARLINK-3856,PAYLOAD,2024-07-10 10:52:46,15.08834681,0.0001329,53.2175,265.1166,77.8432,282.2709,-3.767e-05,-8.87e-06,0.0,0 STARLINK-3856,1 52459U 22049J   24192.45331727 -.00000887  00000-0 -37670-4 0  9994,2 52459  53.2175 265.1166 0001329  77.8432 282.2709 15.08834681120572,6917.897,95.438,540.681,538.842,0.0
52459.0,STARLINK-3856,PAYLOAD,2024-07-11 04:22:00,15.08836123,0.0001226,53.2168,261.8438,85.9971,274.1162,7.527e-05,9.1e-06,0.0,0 STARLINK-3856,1 52459U 22049J   24193.18195216  .00000910  00000-0  75270-4 0  9999,2 52459  53.2168 261.8438 0001226  85.9971 274.1162 15.08836123120849,6917.892,95.438,540.605,538.909,0.0
52459.0,STARLINK-3856,PAYLOAD,2024-07-11 10:43:32,15.08840232,0.0001471,53.2176,260.6545,101.3032,258.8125,8.4624e-05,1.059e-05,0.0,0 STARLINK-3856,1 52459U 22049J   24193.44690935  .00001059  00000-0  84624-4 0  9994,2 52459  53.2176 260.6545 0001471 101.3032 258.8125 15.08840232120728,6917.88,95.438,540.762,538.727,0.0
52459.0,STARLINK-3856,PAYLOAD,2024-07-12 10:34:20,15.08840367,0.000136,53.2169,256.194,93.5803,266.5345,5.7297e-05,6.24e-06,0.0,0 STARLINK-3856,1 52459U 22049J   24194.44051115  .00000624  00000-0  57297-4 0  9999,2 52459  53.2169 256.1940 0001360  93.5803 266.5345 15.08840367121038,6917.879,95.438,540.685,538.803,0.0
52459.0,STARLINK-3856,PAYLOAD,2024-07-12 21:42:02,15.08841439,0.0001316,53.2161,254.1125,90.1852,269.9291,4.5833e-05,4.42e-06,0.0,0 STARLINK-3856,1 52459U 22049J   24194.90419035  .00000442  00000-0  45833-4 0  9990,2 52459  53.2161 254.1125 0001316  90.1852 269.9291 15.08841439120948,6917.876,95.437,540.651,538.831,0.0
52459.0,STARLINK-3856,PAYLOAD,2024-07-13 12:00:30,15.08844306,0.0001416,53.2164,251.4356,96.8557,263.2597,3.2144e-05,2.24e-06,0.0,0 STARLINK-3856,1 52459U 22049J   24195.50034828  .00000224  00000-0  32144-4 0  9999,2 52459  53.2164 251.4356 0001416  96.8557 263.2597 15.08844306121193,6917.867,95.437,540.712,538.753,0.0
52459.0,STARLINK-3856,PAYLOAD,2024-07-14 10:15:54,15.088409,0.0001318,53.2163,247.273,88.9608,271.1535,2.7286e-05,1.46e-06,0.0,0 STARLINK-3856,1 52459U 22049J   24196.42771106  .00000146  00000-0  27286-4 0  9992,2 52459  53.2163 247.2730 0001318  88.9608 271.1535 15.08840900121333,6917.878,95.437,540.654,538.831,0.0
52459.0,STARLINK-3856,PAYLOAD,2024-07-15 10:06:41,15.08841704,0.0001265,53.2158,242.8126,86.9336,273.1801,6.2359e-05,7.05e-06,0.0,0 STARLINK-3856,1 52459U 22049J   24197.42130983  .00000705  00000-0  62359-4 0  9996,2 52459  53.2158 242.8126 0001265  86.9336 273.1801 15.08841704121324,6917.875,95.437,540.615,538.865,0.0
52459.0,STARLINK-3856,PAYLOAD,2024-07-15 19:39:00,15.0883944,0.0001312,53.2158,241.0281,86.3048,273.8094,-2.9786e-05,-7.62e-06,0.0,0 STARLINK-3856,1 52459U 22049J   24197.81875366 -.00000762  00000-0 -29786-4 0  9992,2 52459  53.2158 241.0281 0001312  86.3048 273.8094 15.08839440121543,6917.882,95.438,540.655,538.839,0.0
52459.0,STARLINK-3856,PAYLOAD,2024-07-16 11:32:51,15.08839944,0.0001298,53.2164,238.0566,92.0097,268.1043,1.9171e-05,1.7e-07,0.0,0 STARLINK-3856,1 52459U 22049J   24198.48115379  .00000017  00000-0  19171-4 0  9995,2 52459  53.2164 238.0566 0001298  92.0097 268.1043 15.08839944121486,6917.881,95.438,540.644,538.848,0.0
52459.0,STARLINK-3856,PAYLOAD,2024-07-17 11:23:39,15.08838495,0.0001244,53.215,233.5928,94.3279,265.7856,-6.7152e-05,-1.356e-05,0.0,0 STARLINK-3856,1 52459U 22049J   24199.47476204 -.00001356  00000-0 -67152-4 0  9993,2 52459  53.2150 233.5928 0001244  94.3279 265.7856 15.08838495121790,6917.885,95.438,540.611,538.889,0.0
52459.0,STARLINK-3856,PAYLOAD,2024-07-18 11:14:26,15.08835865,0.0001418,53.2163,229.1309,89.7548,270.3607,9.8038e-05,1.273e-05,0.0,0 STARLINK-3856,1 52459U 22049J   24200.46836318  .00001273  00000-0  98038-4 0  9994,2 52459  53.2163 229.1309 0001418  89.7548 270.3607 15.08835865121781,6917.893,95.438,540.739,538.777,0.0
52459.0,STARLINK-3856,PAYLOAD,2024-07-19 11:05:12,15.08845944,0.0001281,53.2156,224.6697,91.1797,268.9342,0.00014161,1.967e-05,0.0,0 STARLINK-3856,1 52459U 22049J   24201.46195486  .00001967  00000-0  14161-3 0  9993,2 52459  53.2156 224.6697 0001281  91.1797 268.9342 15.08845944122097,6917.862,95.437,540.613,538.841,0.0
52459.0,STARLINK-3856,PAYLOAD,2024-07-19 19:02:08,15.08840375,0.0001231,53.2151,223.1809,94.3409,265.7724,7.0001e-05,8.26e-06,0.0,0 STARLINK-3856,1 52459U 22049J   24201.79315969  .00000826  00000-0  70001-4 0  9998,2 52459  53.2151 223.1809 0001231  94.3409 265.7724 15.08840375122149,6917.879,95.438,540.596,538.893,0.0
52459.0,STARLINK-3856,PAYLOAD,2024-07-20 10:56:00,15.08840961,0.0001461,53.2167,220.2085,85.3421,274.7738,9.0239e-06,-1.44e-06,0.0,0 STARLINK-3856,1 52459U 22049J   24202.45556288 -.00000144  00000-0  90239-5 0  9993,2 52459  53.2167 220.2085 0001461  85.3421 274.7738 15.08840961122088,6917.877,95.437,540.753,538.732,0.0
